[{"OBJECT_NAME":"STARLINK-32928","OBJECT_ID":"2025-075S","EPOCH":"2026-03-09T21:49:10.229088","MEAN_MOTION":15.27605346,"ECCENTRICITY":0.00021424,"INCLINATION":43.0003,"RA_OF_ASC_NODE":269.1595,"ARG_OF_PERICENTER":255.3172,"MEAN_ANOMALY":104.7443,"EPHEMERIS_TYPE":0,"CLASSIFICATION_TYPE":"U","NORAD_CAT_ID":63564,"ELEMENT_SET_NO":999,"REV_AT_EPOCH":5197,"BSTAR":0.0011865793,"MEAN_MOTION_DOT":0.0003256,"MEAN_MOTION_DDOT":0},{"OBJECT_NAME":"OBJECT J","OBJECT_ID":"2025-155J","EPOCH":"2026-03-09T22:09:22.347648","MEAN_MOTION":15.2758258,"ECCENTRICITY":0.00088188,"INCLINATION":97.4475,"RA_OF_ASC_NODE":37.3123,"ARG_OF_PERICENTER":150.071,"MEAN_ANOMALY":210.1035,"EPHEMERIS_TYPE":0,"CLASSIFICATION_TYPE":"U","NORAD_CAT_ID":64884,"ELEMENT_SET_NO":999,"REV_AT_EPOCH":6559,"BSTAR":0.00051444498,"MEAN_MOTION_DOT":0.00013827,"MEAN_MOTION_DDOT":0}]
